ATLAS CENTAUR 2         
1 00694U 63047A   25336.46919167  .00004586  00000+0  55063-3 0  9995
2 00694  30.3589  18.8214 0549385 303.7025  51.2361 14.11665170117871
THOR AGENA D R/B        
1 00733U 64002A   25336.46519632  .00000354  00000+0  14361-3 0  9999
2 00733  99.1219 339.5284 0032890 179.8947 180.2248 14.33949820224362
SL-3 R/B                
1 00877U 64053B   25336.16969814  .00000539  00000+0  12925-3 0  9991
2 00877  65.0770 257.1159 0072938 323.8857  35.7328 14.61258235252547
SL-8 R/B                
1 02802U 67045B   25336.48088416  .00000434  00000+0  12784-3 0  9997
2 02802  74.0092 169.6187 0064796 201.2989 158.5471 14.45521802 74977
SL-8 R/B                
1 03230U 68040B   25336.45278389  .00004536  00000+0  34311-3 0  9993
2 03230  74.0296 152.2527 0024763 356.0094   4.0892 15.02412035 75403
OAO 2                   
1 03597U 68110A   25336.30127987  .00000410  00000+0  11592-3 0  9991
2 03597  34.9931  88.9323 0005052 141.0989 219.0066 14.47232784  4989
ISIS 1                  
1 03669U 69009A   25336.26170517  .00000267  00000+0  19499-3 0  9995
2 03669  88.4488 165.9425 1706902 285.8766  56.1263 11.30347498337528
SERT 2                  
1 04327U 70009A   25336.50931046  .00000035  00000+0  10394-3 0  9996
2 04327  99.2634 279.9815 0005616  57.4180  60.2596 13.58715568766696
SL-3 R/B                
1 05118U 71028B   25336.50208285  .00030784  00000+0  47693-3 0  9995
2 05118  81.2374 171.3554 0019611 277.7497  82.1525 15.53641967973547
ASTEX 1                 
1 05560U 71089A   25336.42696171  .00000846  00000+0  21566-3 0  9996
2 05560  92.7134 120.2829 0017447  57.7333 302.5561 14.50621558848200
SL-8 R/B                
1 05730U 71119B   25336.44320558  .00012534  00000+0  65720-3 0  9991
2 05730  73.8889 357.1770 0560324 343.5203  14.8349 14.35385684641524
OAO 3 (COPERNICUS)      
1 06153U 72065A   25336.48241997  .00000558  00000+0  11921-3 0  9992
2 06153  35.0041 131.0968 0005934  83.8772 314.4800 14.59890935831986
