CCSDS_OMM_VERS = 2.0
CREATION_DATE  = 
ORIGINATOR     = 

OBJECT_NAME    = ATLAS CENTAUR 2
OBJECT_ID      = 1963-047A
CENTER_NAME    = EARTH
REF_FRAME      = TEME
TIME_SYSTEM    = UTC
MEAN_ELEMENT_THEORY = SGP/SGP4

EPOCH          = 2025-12-02T11:15:38.160288
MEAN_MOTION    = 14.11665170
ECCENTRICITY   = .0549385
INCLINATION    = 30.3589
RA_OF_ASC_NODE = 18.8214
ARG_OF_PERICENTER = 303.7025
MEAN_ANOMALY   = 51.2361

EPHEMERIS_TYPE = 0
CLASSIFICATION_TYPE = U
NORAD_CAT_ID   = 694
ELEMENT_SET_NO = 999
REV_AT_EPOCH   = 11787
BSTAR          = .55063E-3
MEAN_MOTION_DOT = .4586E-4
MEAN_MOTION_DDOT = 0

CCSDS_OMM_VERS = 2.0
CREATION_DATE  = 
ORIGINATOR     = 

OBJECT_NAME    = THOR AGENA D R/B
OBJECT_ID      = 1964-002A
CENTER_NAME    = EARTH
REF_FRAME      = TEME
TIME_SYSTEM    = UTC
MEAN_ELEMENT_THEORY = SGP/SGP4

EPOCH          = 2025-12-02T11:09:52.962048
MEAN_MOTION    = 14.33949820
ECCENTRICITY   = .003289
INCLINATION    = 99.1219
RA_OF_ASC_NODE = 339.5284
ARG_OF_PERICENTER = 179.8947
MEAN_ANOMALY   = 180.2248

EPHEMERIS_TYPE = 0
CLASSIFICATION_TYPE = U
NORAD_CAT_ID   = 733
ELEMENT_SET_NO = 999
REV_AT_EPOCH   = 22436
BSTAR          = .14361E-3
MEAN_MOTION_DOT = .354E-5
MEAN_MOTION_DDOT = 0

CCSDS_OMM_VERS = 2.0
CREATION_DATE  = 
ORIGINATOR     = 

OBJECT_NAME    = SL-3 R/B
OBJECT_ID      = 1964-053B
CENTER_NAME    = EARTH
REF_FRAME      = TEME
TIME_SYSTEM    = UTC
MEAN_ELEMENT_THEORY = SGP/SGP4

EPOCH          = 2025-12-02T04:04:21.919296
MEAN_MOTION    = 14.61258235
ECCENTRICITY   = .00729384
INCLINATION    = 65.0770
RA_OF_ASC_NODE = 257.1159
ARG_OF_PERICENTER = 323.8857
MEAN_ANOMALY   = 35.7328

EPHEMERIS_TYPE = 0
CLASSIFICATION_TYPE = U
NORAD_CAT_ID   = 877
ELEMENT_SET_NO = 999
REV_AT_EPOCH   = 25254
BSTAR          = .12925049E-3
MEAN_MOTION_DOT = .539E-5
MEAN_MOTION_DDOT = 0

CCSDS_OMM_VERS = 2.0
CREATION_DATE  = 
ORIGINATOR     = 

OBJECT_NAME    = SL-8 R/B
OBJECT_ID      = 1967-045B
CENTER_NAME    = EARTH
REF_FRAME      = TEME
TIME_SYSTEM    = UTC
MEAN_ELEMENT_THEORY = SGP/SGP4

EPOCH          = 2025-12-02T11:32:28.391424
MEAN_MOTION    = 14.45521802
ECCENTRICITY   = .0064796
INCLINATION    = 74.0092
RA_OF_ASC_NODE = 169.6187
ARG_OF_PERICENTER = 201.2989
MEAN_ANOMALY   = 158.5471

EPHEMERIS_TYPE = 0
CLASSIFICATION_TYPE = U
NORAD_CAT_ID   = 2802
ELEMENT_SET_NO = 999
REV_AT_EPOCH   = 7497
BSTAR          = .12784E-3
MEAN_MOTION_DOT = .434E-5
MEAN_MOTION_DDOT = 0

CCSDS_OMM_VERS = 2.0
CREATION_DATE  = 
ORIGINATOR     = 

OBJECT_NAME    = SL-8 R/B
OBJECT_ID      = 1968-040B
CENTER_NAME    = EARTH
REF_FRAME      = TEME
TIME_SYSTEM    = UTC
MEAN_ELEMENT_THEORY = SGP/SGP4

EPOCH          = 2025-12-02T10:52:00.528096
MEAN_MOTION    = 15.02412035
ECCENTRICITY   = .0024763
INCLINATION    = 74.0296
RA_OF_ASC_NODE = 152.2527
ARG_OF_PERICENTER = 356.0094
MEAN_ANOMALY   = 4.0892

EPHEMERIS_TYPE = 0
CLASSIFICATION_TYPE = U
NORAD_CAT_ID   = 3230
ELEMENT_SET_NO = 999
REV_AT_EPOCH   = 7540
BSTAR          = .34311E-3
MEAN_MOTION_DOT = .4536E-4
MEAN_MOTION_DDOT = 0

CCSDS_OMM_VERS = 2.0
CREATION_DATE  = 
ORIGINATOR     = 

OBJECT_NAME    = OAO 2
OBJECT_ID      = 1968-110A
CENTER_NAME    = EARTH
REF_FRAME      = TEME
TIME_SYSTEM    = UTC
MEAN_ELEMENT_THEORY = SGP/SGP4

EPOCH          = 2025-12-02T07:13:50.580768
MEAN_MOTION    = 14.47232784
ECCENTRICITY   = .0005052
INCLINATION    = 34.9931
RA_OF_ASC_NODE = 88.9323
ARG_OF_PERICENTER = 141.0989
MEAN_ANOMALY   = 219.0066

EPHEMERIS_TYPE = 0
CLASSIFICATION_TYPE = U
NORAD_CAT_ID   = 3597
ELEMENT_SET_NO = 999
REV_AT_EPOCH   = 498
BSTAR          = .11592E-3
MEAN_MOTION_DOT = .41E-5
MEAN_MOTION_DDOT = 0

CCSDS_OMM_VERS = 2.0
CREATION_DATE  = 
ORIGINATOR     = 

OBJECT_NAME    = ISIS 1
OBJECT_ID      = 1969-009A
CENTER_NAME    = EARTH
REF_FRAME      = TEME
TIME_SYSTEM    = UTC
MEAN_ELEMENT_THEORY = SGP/SGP4

EPOCH          = 2025-12-02T06:16:51.326688
MEAN_MOTION    = 11.30347498
ECCENTRICITY   = .1706902
INCLINATION    = 88.4488
RA_OF_ASC_NODE = 165.9425
ARG_OF_PERICENTER = 285.8766
MEAN_ANOMALY   = 56.1263

EPHEMERIS_TYPE = 0
CLASSIFICATION_TYPE = U
NORAD_CAT_ID   = 3669
ELEMENT_SET_NO = 999
REV_AT_EPOCH   = 33752
BSTAR          = .19499E-3
MEAN_MOTION_DOT = .267E-5
MEAN_MOTION_DDOT = 0

CCSDS_OMM_VERS = 2.0
CREATION_DATE  = 
ORIGINATOR     = 

OBJECT_NAME    = SERT 2
OBJECT_ID      = 1970-009A
CENTER_NAME    = EARTH
REF_FRAME      = TEME
TIME_SYSTEM    = UTC
MEAN_ELEMENT_THEORY = SGP/SGP4

EPOCH          = 2025-12-02T12:13:24.423744
MEAN_MOTION    = 13.58715568
ECCENTRICITY   = .0005616
INCLINATION    = 99.2634
RA_OF_ASC_NODE = 279.9815
ARG_OF_PERICENTER = 57.4180
MEAN_ANOMALY   = 60.2596

EPHEMERIS_TYPE = 0
CLASSIFICATION_TYPE = U
NORAD_CAT_ID   = 4327
ELEMENT_SET_NO = 999
REV_AT_EPOCH   = 76669
BSTAR          = .10394E-3
MEAN_MOTION_DOT = .35E-6
MEAN_MOTION_DDOT = 0

CCSDS_OMM_VERS = 2.0
CREATION_DATE  = 
ORIGINATOR     = 

OBJECT_NAME    = SL-3 R/B
OBJECT_ID      = 1971-028B
CENTER_NAME    = EARTH
REF_FRAME      = TEME
TIME_SYSTEM    = UTC
MEAN_ELEMENT_THEORY = SGP/SGP4

EPOCH          = 2025-12-02T12:02:59.958240
MEAN_MOTION    = 15.53641967
ECCENTRICITY   = .0019611
INCLINATION    = 81.2374
RA_OF_ASC_NODE = 171.3554
ARG_OF_PERICENTER = 277.7497
MEAN_ANOMALY   = 82.1525

EPHEMERIS_TYPE = 0
CLASSIFICATION_TYPE = U
NORAD_CAT_ID   = 5118
ELEMENT_SET_NO = 999
REV_AT_EPOCH   = 97354
BSTAR          = .47693E-3
MEAN_MOTION_DOT = .30784E-3
MEAN_MOTION_DDOT = 0

CCSDS_OMM_VERS = 2.0
CREATION_DATE  = 
ORIGINATOR     = 

OBJECT_NAME    = ASTEX 1
OBJECT_ID      = 1971-089A
CENTER_NAME    = EARTH
REF_FRAME      = TEME
TIME_SYSTEM    = UTC
MEAN_ELEMENT_THEORY = SGP/SGP4

EPOCH          = 2025-12-02T10:14:49.491744
MEAN_MOTION    = 14.50621558
ECCENTRICITY   = .0017447
INCLINATION    = 92.7134
RA_OF_ASC_NODE = 120.2829
ARG_OF_PERICENTER = 57.7333
MEAN_ANOMALY   = 302.5561

EPHEMERIS_TYPE = 0
CLASSIFICATION_TYPE = U
NORAD_CAT_ID   = 5560
ELEMENT_SET_NO = 999
REV_AT_EPOCH   = 84820
BSTAR          = .21566E-3
MEAN_MOTION_DOT = .846E-5
MEAN_MOTION_DDOT = 0

CCSDS_OMM_VERS = 2.0
CREATION_DATE  = 
ORIGINATOR     = 

OBJECT_NAME    = SL-8 R/B
OBJECT_ID      = 1971-119B
CENTER_NAME    = EARTH
REF_FRAME      = TEME
TIME_SYSTEM    = UTC
MEAN_ELEMENT_THEORY = SGP/SGP4

EPOCH          = 2025-12-02T10:38:12.962112
MEAN_MOTION    = 14.35385684
ECCENTRICITY   = .0560324
INCLINATION    = 73.8889
RA_OF_ASC_NODE = 357.1770
ARG_OF_PERICENTER = 343.5203
MEAN_ANOMALY   = 14.8349

EPHEMERIS_TYPE = 0
CLASSIFICATION_TYPE = U
NORAD_CAT_ID   = 5730
ELEMENT_SET_NO = 999
REV_AT_EPOCH   = 64152
BSTAR          = .6572E-3
MEAN_MOTION_DOT = .12534E-3
MEAN_MOTION_DDOT = 0

CCSDS_OMM_VERS = 2.0
CREATION_DATE  = 
ORIGINATOR     = 

OBJECT_NAME    = OAO 3 (COPERNICUS)
OBJECT_ID      = 1972-065A
CENTER_NAME    = EARTH
REF_FRAME      = TEME
TIME_SYSTEM    = UTC
MEAN_ELEMENT_THEORY = SGP/SGP4

EPOCH          = 2025-12-02T11:34:41.085408
MEAN_MOTION    = 14.59890935
ECCENTRICITY   = .0005934
INCLINATION    = 35.0041
RA_OF_ASC_NODE = 131.0968
ARG_OF_PERICENTER = 83.8772
MEAN_ANOMALY   = 314.4800

EPHEMERIS_TYPE = 0
CLASSIFICATION_TYPE = U
NORAD_CAT_ID   = 6153
ELEMENT_SET_NO = 999
REV_AT_EPOCH   = 83198
BSTAR          = .11921E-3
MEAN_MOTION_DOT = .558E-5
MEAN_MOTION_DDOT = 0

